{
  "type": "FeatureCollection",
  "features": [
    {
      "type": "Feature",
      "properties": {
        "norad_id": 36744,
        "name": "COMS 1",
        "group": "weather",
        "lat": 3.5768267188209637,
        "lon": 133.93791387923693,
        "alt_km": 35788.42917138849,
        "timestamp": "2025-12-02T19:35:50.205097+00:00",
        "meta_object_name": "COMS 1",
        "meta_object_id": "2010-032A",
        "meta_epoch": "2025-12-01T12:42:46.444608",
        "meta_mean_motion": 1.00270535,
        "meta_eccentricity": 0.00010192,
        "meta_inclination": 4.3122,
        "meta_ra_of_asc_node": 78.1218,
        "meta_arg_of_pericenter": 177.7332,
        "meta_mean_anomaly": 133.6625,
        "meta_ephemeris_type": 0,
        "meta_classification_type": "U",
        "meta_norad_cat_id": 36744,
        "meta_element_set_no": 999,
        "meta_rev_at_epoch": 4910,
        "meta_bstar": 0,
        "meta_mean_motion_dot": -3.23e-06,
        "meta_mean_motion_ddot": 0,
        "tle_line1": "1 36744U 10032A   25335.52970422 -.00000323  00000+0  00000+0 0  9996",
        "tle_line2": "2 36744   4.3122  78.1218 0001019 177.7332 133.6625  1.00270535 49109"
      },
      "geometry": {
        "type": "Point",
        "coordinates": [
          133.93791387923693,
          3.5768267188209637
        ]
      }
    },
    {
      "type": "Feature",
      "properties": {
        "norad_id": 37214,
        "name": "FENGYUN 3B",
        "group": "weather",
        "lat": -75.45249931967152,
        "lon": 54.32704565918207,
        "alt_km": 854.2867796687806,
        "timestamp": "2025-12-02T19:35:50.205109+00:00",
        "meta_object_name": "FENGYUN 3B",
        "meta_object_id": "2010-059A",
        "meta_epoch": "2025-12-02T13:54:53.246016",
        "meta_mean_motion": 14.14785219,
        "meta_eccentricity": 0.0022477,
        "meta_inclination": 98.9922,
        "meta_ra_of_asc_node": 16.4855,
        "meta_arg_of_pericenter": 26.3953,
        "meta_mean_anomaly": 130.104,
        "meta_ephemeris_type": 0,
        "meta_classification_type": "U",
        "meta_norad_cat_id": 37214,
        "meta_element_set_no": 999,
        "meta_rev_at_epoch": 77962,
        "meta_bstar": 9.6668e-05,
        "meta_mean_motion_dot": 1.41e-06,
        "meta_mean_motion_ddot": 0,
        "tle_line1": "1 37214U 10059A   25336.57978294  .00000141  00000+0  96668-4 0  9996",
        "tle_line2": "2 37214  98.9922  16.4855 0022477  26.3953 130.1040 14.14785219779629"
      },
      "geometry": {
        "type": "Point",
        "coordinates": [
          54.32704565918207,
          -75.45249931967152
        ]
      }
    },
    {
      "type": "Feature",
      "properties": {
        "norad_id": 37849,
        "name": "SUOMI NPP",
        "group": "weather",
        "lat": -45.21711502497711,
        "lon": -76.79745591276529,
        "alt_km": 835.0392814035513,
        "timestamp": "2025-12-02T19:35:50.205120+00:00",
        "meta_object_name": "SUOMI NPP",
        "meta_object_id": "2011-061A",
        "meta_epoch": "2025-12-02T13:02:47.421024",
        "meta_mean_motion": 14.19509446,
        "meta_eccentricity": 0.0001864,
        "meta_inclination": 98.7758,
        "meta_ra_of_asc_node": 273.9777,
        "meta_arg_of_pericenter": 138.3501,
        "meta_mean_anomaly": 221.7817,
        "meta_ephemeris_type": 0,
        "meta_classification_type": "U",
        "meta_norad_cat_id": 37849,
        "meta_element_set_no": 999,
        "meta_rev_at_epoch": 73054,
        "meta_bstar": 8.4346e-05,
        "meta_mean_motion_dot": 1.34e-06,
        "meta_mean_motion_ddot": 0,
        "tle_line1": "1 37849U 11061A   25336.54360441  .00000134  00000+0  84346-4 0  9992",
        "tle_line2": "2 37849  98.7758 273.9777 0001864 138.3501 221.7817 14.19509446730549"
      },
      "geometry": {
        "type": "Point",
        "coordinates": [
          -76.79745591276529,
          -45.21711502497711
        ]
      }
    },
    {
      "type": "Feature",
      "properties": {
        "norad_id": 38552,
        "name": "METEOSAT-10 (MSG-3)",
        "group": "weather",
        "lat": -3.4578657354133173,
        "lon": 6.033514948426897,
        "alt_km": 35786.161092502894,
        "timestamp": "2025-12-02T19:35:50.205132+00:00",
        "meta_object_name": "METEOSAT-10 (MSG-3)",
        "meta_object_id": "2012-035B",
        "meta_epoch": "2025-12-02T01:48:01.931904",
        "meta_mean_motion": 1.002722,
        "meta_eccentricity": 6.876e-05,
        "meta_inclination": 4.2018,
        "meta_ra_of_asc_node": 61.7375,
        "meta_arg_of_pericenter": 218.9493,
        "meta_mean_anomaly": 177.6056,
        "meta_ephemeris_type": 0,
        "meta_classification_type": "U",
        "meta_norad_cat_id": 38552,
        "meta_element_set_no": 999,
        "meta_rev_at_epoch": 4888,
        "meta_bstar": 0,
        "meta_mean_motion_dot": 1.3e-07,
        "meta_mean_motion_ddot": 0,
        "tle_line1": "1 38552U 12035B   25336.07502236  .00000013  00000+0  00000+0 0  9990",
        "tle_line2": "2 38552   4.2018  61.7375 0000687 218.9493 177.6056  1.00272200 48880"
      },
      "geometry": {
        "type": "Point",
        "coordinates": [
          6.033514948426897,
          -3.4578657354133173
        ]
      }
    },
    {
      "type": "Feature",
      "properties": {
        "norad_id": 38771,
        "name": "METOP-B",
        "group": "weather",
        "lat": 77.56807410711603,
        "lon": -109.18329598791608,
        "alt_km": 812.6417643527411,
        "timestamp": "2025-12-02T19:35:50.205144+00:00",
        "meta_object_name": "METOP-B",
        "meta_object_id": "2012-049A",
        "meta_epoch": "2025-12-02T10:41:11.130144",
        "meta_mean_motion": 14.2140212,
        "meta_eccentricity": 0.0002443,
        "meta_inclination": 98.6814,
        "meta_ra_of_asc_node": 26.5779,
        "meta_arg_of_pericenter": 167.5682,
        "meta_mean_anomaly": 192.5556,
        "meta_ephemeris_type": 0,
        "meta_classification_type": "U",
        "meta_norad_cat_id": 38771,
        "meta_element_set_no": 999,
        "meta_rev_at_epoch": 68531,
        "meta_bstar": 0.00011431,
        "meta_mean_motion_dot": 2.06e-06,
        "meta_mean_motion_ddot": 0,
        "tle_line1": "1 38771U 12049A   25336.44526771  .00000206  00000+0  11431-3 0  9997",
        "tle_line2": "2 38771  98.6814  26.5779 0002443 167.5682 192.5556 14.21402120685311"
      },
      "geometry": {
        "type": "Point",
        "coordinates": [
          -109.18329598791608,
          77.56807410711603
        ]
      }
    },
    {
      "type": "Feature",
      "properties": {
        "norad_id": 39216,
        "name": "INSAT-3D",
        "group": "weather",
        "lat": 1.089454444225557,
        "lon": 135.3325444241687,
        "alt_km": 35786.82561338125,
        "timestamp": "2025-12-02T19:35:50.205155+00:00",
        "meta_object_name": "INSAT-3D",
        "meta_object_id": "2013-038B",
        "meta_epoch": "2025-12-02T08:53:38.455008",
        "meta_mean_motion": 1.00274383,
        "meta_eccentricity": 0.0001714,
        "meta_inclination": 1.4156,
        "meta_ra_of_asc_node": 85.1105,
        "meta_arg_of_pericenter": 152.4381,
        "meta_mean_anomaly": 96.8446,
        "meta_ephemeris_type": 0,
        "meta_classification_type": "U",
        "meta_norad_cat_id": 39216,
        "meta_element_set_no": 999,
        "meta_rev_at_epoch": 4510,
        "meta_bstar": 0,
        "meta_mean_motion_dot": -3.18e-06,
        "meta_mean_motion_ddot": 0,
        "tle_line1": "1 39216U 13038B   25336.37058397 -.00000318  00000+0  00000+0 0  9998",
        "tle_line2": "2 39216   1.4156  85.1105 0001714 152.4381  96.8446  1.00274383 45102"
      },
      "geometry": {
        "type": "Point",
        "coordinates": [
          135.3325444241687,
          1.089454444225557
        ]
      }
    },
    {
      "type": "Feature",
      "properties": {
        "norad_id": 39260,
        "name": "FENGYUN 3C",
        "group": "weather",
        "lat": -9.797805907200065,
        "lon": 133.5055163512969,
        "alt_km": 836.0180092768132,
        "timestamp": "2025-12-02T19:35:50.205167+00:00",
        "meta_object_name": "FENGYUN 3C",
        "meta_object_id": "2013-052A",
        "meta_epoch": "2025-12-02T13:36:49.950720",
        "meta_mean_motion": 14.15691131,
        "meta_eccentricity": 0.0013792,
        "meta_inclination": 98.4753,
        "meta_ra_of_asc_node": 314.7439,
        "meta_arg_of_pericenter": 226.6603,
        "meta_mean_anomaly": 133.3423,
        "meta_ephemeris_type": 0,
        "meta_classification_type": "U",
        "meta_norad_cat_id": 39260,
        "meta_element_set_no": 999,
        "meta_rev_at_epoch": 63074,
        "meta_bstar": 0.00010442,
        "meta_mean_motion_dot": 1.64e-06,
        "meta_mean_motion_ddot": 0,
        "tle_line1": "1 39260U 13052A   25336.56724480  .00000164  00000+0  10442-3 0  9990",
        "tle_line2": "2 39260  98.4753 314.7439 0013792 226.6603 133.3423 14.15691131630747"
      },
      "geometry": {
        "type": "Point",
        "coordinates": [
          133.5055163512969,
          -9.797805907200065
        ]
      }
    }
  ]
}